CCSDS_OMM_VERS = 2.0
CREATION_DATE  = 
ORIGINATOR     = 

OBJECT_NAME    = DELTA 2 R/B(1)
OBJECT_ID      = 1990-008B
CENTER_NAME    = EARTH
REF_FRAME      = TEME
TIME_SYSTEM    = UTC
MEAN_ELEMENT_THEORY = SGP/SGP4

EPOCH          = 2025-12-30T23:04:45.960384
MEAN_MOTION    = 15.46935223
ECCENTRICITY   = .01073579
INCLINATION    = 35.6063
RA_OF_ASC_NODE = 262.7271
ARG_OF_PERICENTER = 343.5347
MEAN_ANOMALY   = 16.1913

EPHEMERIS_TYPE = 0
CLASSIFICATION_TYPE = U
NORAD_CAT_ID   = 20453
ELEMENT_SET_NO = 999
REV_AT_EPOCH   = 91545
BSTAR          = .10875966E-2
MEAN_MOTION_DOT = .71565E-3
MEAN_MOTION_DDOT = 0

CCSDS_OMM_VERS = 2.0
CREATION_DATE  = 
ORIGINATOR     = 

OBJECT_NAME    = COSMOS 2058
OBJECT_ID      = 1990-010A
CENTER_NAME    = EARTH
REF_FRAME      = TEME
TIME_SYSTEM    = UTC
MEAN_ELEMENT_THEORY = SGP/SGP4

EPOCH          = 2025-12-30T18:37:17.683968
MEAN_MOTION    = 15.10665007
ECCENTRICITY   = .00099178
INCLINATION    = 82.4715
RA_OF_ASC_NODE = 115.2909
ARG_OF_PERICENTER = 207.0538
MEAN_ANOMALY   = 153.0176

EPHEMERIS_TYPE = 0
CLASSIFICATION_TYPE = U
NORAD_CAT_ID   = 20465
ELEMENT_SET_NO = 999
REV_AT_EPOCH   = 93183
BSTAR          = .44347089E-3
MEAN_MOTION_DOT = .7373E-4
MEAN_MOTION_DDOT = 0

CCSDS_OMM_VERS = 2.0
CREATION_DATE  = 
ORIGINATOR     = 

OBJECT_NAME    = SL-14 R/B
OBJECT_ID      = 1990-010B
CENTER_NAME    = EARTH
REF_FRAME      = TEME
TIME_SYSTEM    = UTC
MEAN_ELEMENT_THEORY = SGP/SGP4

EPOCH          = 2025-12-30T22:58:19.677216
MEAN_MOTION    = 14.83491686
ECCENTRICITY   = .00202202
INCLINATION    = 82.5028
RA_OF_ASC_NODE = 331.9369
ARG_OF_PERICENTER = 162.0172
MEAN_ANOMALY   = 198.1763

EPHEMERIS_TYPE = 0
CLASSIFICATION_TYPE = U
NORAD_CAT_ID   = 20466
ELEMENT_SET_NO = 999
REV_AT_EPOCH   = 91829
BSTAR          = .10294598E-3
MEAN_MOTION_DOT = .873E-5
MEAN_MOTION_DDOT = 0

CCSDS_OMM_VERS = 2.0
CREATION_DATE  = 
ORIGINATOR     = 

OBJECT_NAME    = SL-14 R/B
OBJECT_ID      = 1990-018B
CENTER_NAME    = EARTH
REF_FRAME      = TEME
TIME_SYSTEM    = UTC
MEAN_ELEMENT_THEORY = SGP/SGP4

EPOCH          = 2025-12-30T20:11:28.445280
MEAN_MOTION    = 14.82068599
ECCENTRICITY   = .00154857
INCLINATION    = 82.5220
RA_OF_ASC_NODE = 287.4472
ARG_OF_PERICENTER = 323.1947
MEAN_ANOMALY   = 36.8203

EPHEMERIS_TYPE = 0
CLASSIFICATION_TYPE = U
NORAD_CAT_ID   = 20511
ELEMENT_SET_NO = 999
REV_AT_EPOCH   = 91238
BSTAR          = .10731715E-3
MEAN_MOTION_DOT = .877E-5
MEAN_MOTION_DDOT = 0

CCSDS_OMM_VERS = 2.0
CREATION_DATE  = 
ORIGINATOR     = 

OBJECT_NAME    = HST
OBJECT_ID      = 1990-037B
CENTER_NAME    = EARTH
REF_FRAME      = TEME
TIME_SYSTEM    = UTC
MEAN_ELEMENT_THEORY = SGP/SGP4

EPOCH          = 2025-12-30T18:01:55.074432
MEAN_MOTION    = 15.28295938
ECCENTRICITY   = .00026192
INCLINATION    = 28.4652
RA_OF_ASC_NODE = 149.8672
ARG_OF_PERICENTER = 74.6376
MEAN_ANOMALY   = 285.4508

EPHEMERIS_TYPE = 0
CLASSIFICATION_TYPE = U
NORAD_CAT_ID   = 20580
ELEMENT_SET_NO = 999
REV_AT_EPOCH   = 76275
BSTAR          = .35027992E-3
MEAN_MOTION_DOT = .10169E-3
MEAN_MOTION_DDOT = 0

CCSDS_OMM_VERS = 2.0
CREATION_DATE  = 
ORIGINATOR     = 

OBJECT_NAME    = SL-16 R/B
OBJECT_ID      = 1990-046B
CENTER_NAME    = EARTH
REF_FRAME      = TEME
TIME_SYSTEM    = UTC
MEAN_ELEMENT_THEORY = SGP/SGP4

EPOCH          = 2025-12-30T15:08:48.041376
MEAN_MOTION    = 14.14998244
ECCENTRICITY   = .0012532
INCLINATION    = 70.9993
RA_OF_ASC_NODE = 82.9491
ARG_OF_PERICENTER = 42.8436
MEAN_ANOMALY   = 317.3661

EPHEMERIS_TYPE = 0
CLASSIFICATION_TYPE = U
NORAD_CAT_ID   = 20625
ELEMENT_SET_NO = 999
REV_AT_EPOCH   = 83862
BSTAR          = .10287E-3
MEAN_MOTION_DOT = .152E-5
MEAN_MOTION_DDOT = 0

CCSDS_OMM_VERS = 2.0
CREATION_DATE  = 
ORIGINATOR     = 

OBJECT_NAME    = COSMOS 2084
OBJECT_ID      = 1990-055A
CENTER_NAME    = EARTH
REF_FRAME      = TEME
TIME_SYSTEM    = UTC
MEAN_ELEMENT_THEORY = SGP/SGP4

EPOCH          = 2025-12-30T20:08:12.620544
MEAN_MOTION    = 15.05136491
ECCENTRICITY   = .00287517
INCLINATION    = 62.7893
RA_OF_ASC_NODE = 210.3178
ARG_OF_PERICENTER = 177.3268
MEAN_ANOMALY   = 182.7992

EPHEMERIS_TYPE = 0
CLASSIFICATION_TYPE = U
NORAD_CAT_ID   = 20663
ELEMENT_SET_NO = 999
REV_AT_EPOCH   = 92595
BSTAR          = .36536904E-3
MEAN_MOTION_DOT = .5075E-4
MEAN_MOTION_DDOT = 0

CCSDS_OMM_VERS = 2.0
CREATION_DATE  = 
ORIGINATOR     = 

OBJECT_NAME    = SL-6 R/B(2)
OBJECT_ID      = 1990-055D
CENTER_NAME    = EARTH
REF_FRAME      = TEME
TIME_SYSTEM    = UTC
MEAN_ELEMENT_THEORY = SGP/SGP4

EPOCH          = 2025-12-30T17:30:25.156512
MEAN_MOTION    = 15.03173633
ECCENTRICITY   = .00148675
INCLINATION    = 62.7833
RA_OF_ASC_NODE = 128.2850
ARG_OF_PERICENTER = 320.7726
MEAN_ANOMALY   = 39.2295

EPHEMERIS_TYPE = 0
CLASSIFICATION_TYPE = U
NORAD_CAT_ID   = 20666
ELEMENT_SET_NO = 999
REV_AT_EPOCH   = 92782
BSTAR          = .32539954E-3
MEAN_MOTION_DOT = .4234E-4
MEAN_MOTION_DDOT = 0

CCSDS_OMM_VERS = 2.0
CREATION_DATE  = 
ORIGINATOR     = 

OBJECT_NAME    = SL-8 R/B
OBJECT_ID      = 1990-078B
CENTER_NAME    = EARTH
REF_FRAME      = TEME
TIME_SYSTEM    = UTC
MEAN_ELEMENT_THEORY = SGP/SGP4

EPOCH          = 2025-12-30T20:11:36.823488
MEAN_MOTION    = 14.86585029
ECCENTRICITY   = .03695609
INCLINATION    = 82.9056
RA_OF_ASC_NODE = 313.0998
ARG_OF_PERICENTER = 244.9285
MEAN_ANOMALY   = 111.3157

EPHEMERIS_TYPE = 0
CLASSIFICATION_TYPE = U
NORAD_CAT_ID   = 20775
ELEMENT_SET_NO = 999
REV_AT_EPOCH   = 79906
BSTAR          = .62803605E-3
MEAN_MOTION_DOT = .20423E-3
MEAN_MOTION_DDOT = 0

CCSDS_OMM_VERS = 2.0
CREATION_DATE  = 
ORIGINATOR     = 

OBJECT_NAME    = SL-8 R/B
OBJECT_ID      = 1991-006B
CENTER_NAME    = EARTH
REF_FRAME      = TEME
TIME_SYSTEM    = UTC
MEAN_ELEMENT_THEORY = SGP/SGP4

EPOCH          = 2025-12-30T16:37:16.059072
MEAN_MOTION    = 13.77492821
ECCENTRICITY   = .00214804
INCLINATION    = 82.9409
RA_OF_ASC_NODE = 221.3589
ARG_OF_PERICENTER = 226.5510
MEAN_ANOMALY   = 196.8326

EPHEMERIS_TYPE = 0
CLASSIFICATION_TYPE = U
NORAD_CAT_ID   = 21088
ELEMENT_SET_NO = 999
REV_AT_EPOCH   = 75457
BSTAR          = .48479386E-4
MEAN_MOTION_DOT = .63E-6
MEAN_MOTION_DDOT = 0

CCSDS_OMM_VERS = 2.0
CREATION_DATE  = 
ORIGINATOR     = 

OBJECT_NAME    = OKEAN-3
OBJECT_ID      = 1991-039A
CENTER_NAME    = EARTH
REF_FRAME      = TEME
TIME_SYSTEM    = UTC
MEAN_ELEMENT_THEORY = SGP/SGP4

EPOCH          = 2025-12-30T13:50:52.874304
MEAN_MOTION    = 15.04236102
ECCENTRICITY   = .0013748
INCLINATION    = 82.5165
RA_OF_ASC_NODE = 43.7800
ARG_OF_PERICENTER = 198.7866
MEAN_ANOMALY   = 161.2855

EPHEMERIS_TYPE = 0
CLASSIFICATION_TYPE = U
NORAD_CAT_ID   = 21397
ELEMENT_SET_NO = 999
REV_AT_EPOCH   = 85464
BSTAR          = .34309E-3
MEAN_MOTION_DOT = .4805E-4
MEAN_MOTION_DDOT = 0

CCSDS_OMM_VERS = 2.0
CREATION_DATE  = 
ORIGINATOR     = 

OBJECT_NAME    = COSMOS 2151
OBJECT_ID      = 1991-042A
CENTER_NAME    = EARTH
REF_FRAME      = TEME
TIME_SYSTEM    = UTC
MEAN_ELEMENT_THEORY = SGP/SGP4

EPOCH          = 2025-12-30T21:42:45.610848
MEAN_MOTION    = 14.99771630
ECCENTRICITY   = .00113465
INCLINATION    = 82.4967
RA_OF_ASC_NODE = 149.9974
ARG_OF_PERICENTER = 294.2309
MEAN_ANOMALY   = 65.7729

EPHEMERIS_TYPE = 0
CLASSIFICATION_TYPE = U
NORAD_CAT_ID   = 21422
ELEMENT_SET_NO = 999
REV_AT_EPOCH   = 85288
BSTAR          = .31603297E-3
MEAN_MOTION_DOT = .3936E-4
MEAN_MOTION_DDOT = 0

